SL-16 R/B               
1 24298U 96051B   25317.59315269  .00000040  00000+0  48173-4 0  9994
2 24298  70.7605  60.9748 0018191 298.0384  61.8895 14.12393225505256
ORBVIEW 2 (SEASTAR)     
1 24883U 97037A   25317.42940843  .00000845  00000+0  31070-3 0  9993
2 24883  98.8447 113.7692 0002980  58.5476 301.6000 14.35384734491792
SL-16 R/B               
1 25400U 98043G   25317.60981721  .00000254  00000+0  12533-3 0  9994
2 25400  98.8076 265.2721 0009804 357.7233   2.3900 14.26015065422447
SL-16 R/B               
1 25407U 98045B   25317.59285297 -.00000081  00000+0 -16838-4 0  9999
2 25407  71.0121  65.7191 0008621 217.7051 142.3469 14.16169342410664
ISS (ZARYA)             
1 25544U 98067A   25317.38640452  .00019086  00000+0  34614-3 0  9994
2 25544  51.6331 287.7803 0004165  65.1573 294.9849 15.49618030538300
CZ-4B R/B               
1 25732U 99025C   25317.39156860  .00000225  00000+0  12966-3 0  9995
2 25732  98.6814 359.3216 0036382 320.6891  54.8730 14.18232972371688
OKEAN-O                 
1 25860U 99039A   25317.58509326  .00001846  00000+0  25036-3 0  9994
2 25860  97.9646  13.5338 0001426  67.6712 292.4651 14.80090968417218
SL-16 R/B               
1 25861U 99039B   25317.60829637  .00001591  00000+0  20944-3 0  9998
2 25861  98.0169  11.7518 0013509 274.6547  85.3122 14.81526088419674
DELTA 2 R/B             
1 25876U 99041E   25317.53756899  .00002383  00000+0  42217-3 0  9995
2 25876  51.7631  45.0052 0504853   5.7206 354.9205 14.11299085346623
HELIOS 1B               
1 25977U 99064A   25317.26682491  .00006248  00000+0  70189-3 0  9991
2 25977  98.1752 211.0620 0002624  83.1526 276.9988 14.87107216667954
TERRA                   
1 25994U 99068A   25317.64462725  .00001331  00000+0  28113-3 0  9990
2 25994  97.9791  10.3896 0002427 159.5203   2.0760 14.60904440378139
SL-16 R/B               
1 26070U 00006B   25317.43688220 -.00000081  00000+0 -16886-4 0  9995
2 26070  71.0034 342.2726 0016938 349.8579  10.2200 14.15802503332103
