CCSDS_OMM_VERS = 2.0
CREATION_DATE  = 
ORIGINATOR     = 

OBJECT_NAME    = SL-16 R/B
OBJECT_ID      = 1996-051B
CENTER_NAME    = EARTH
REF_FRAME      = TEME
TIME_SYSTEM    = UTC
MEAN_ELEMENT_THEORY = SGP/SGP4

EPOCH          = 2025-11-13T14:14:08.392416
MEAN_MOTION    = 14.12393225
ECCENTRICITY   = .00181916
INCLINATION    = 70.7605
RA_OF_ASC_NODE = 60.9748
ARG_OF_PERICENTER = 298.0384
MEAN_ANOMALY   = 61.8895

EPHEMERIS_TYPE = 0
CLASSIFICATION_TYPE = U
NORAD_CAT_ID   = 24298
ELEMENT_SET_NO = 999
REV_AT_EPOCH   = 50525
BSTAR          = .48173432E-4
MEAN_MOTION_DOT = .4E-6
MEAN_MOTION_DDOT = 0

CCSDS_OMM_VERS = 2.0
CREATION_DATE  = 
ORIGINATOR     = 

OBJECT_NAME    = ORBVIEW 2 (SEASTAR)
OBJECT_ID      = 1997-037A
CENTER_NAME    = EARTH
REF_FRAME      = TEME
TIME_SYSTEM    = UTC
MEAN_ELEMENT_THEORY = SGP/SGP4

EPOCH          = 2025-11-13T10:18:20.888352
MEAN_MOTION    = 14.35384734
ECCENTRICITY   = .00029804
INCLINATION    = 98.8447
RA_OF_ASC_NODE = 113.7692
ARG_OF_PERICENTER = 58.5476
MEAN_ANOMALY   = 301.6000

EPHEMERIS_TYPE = 0
CLASSIFICATION_TYPE = U
NORAD_CAT_ID   = 24883
ELEMENT_SET_NO = 999
REV_AT_EPOCH   = 49179
BSTAR          = .31069679E-3
MEAN_MOTION_DOT = .845E-5
MEAN_MOTION_DDOT = 0

CCSDS_OMM_VERS = 2.0
CREATION_DATE  = 
ORIGINATOR     = 

OBJECT_NAME    = SL-16 R/B
OBJECT_ID      = 1998-043G
CENTER_NAME    = EARTH
REF_FRAME      = TEME
TIME_SYSTEM    = UTC
MEAN_ELEMENT_THEORY = SGP/SGP4

EPOCH          = 2025-11-13T14:38:08.206944
MEAN_MOTION    = 14.26015065
ECCENTRICITY   = .0009804
INCLINATION    = 98.8076
RA_OF_ASC_NODE = 265.2721
ARG_OF_PERICENTER = 357.7233
MEAN_ANOMALY   = 2.3900

EPHEMERIS_TYPE = 0
CLASSIFICATION_TYPE = U
NORAD_CAT_ID   = 25400
ELEMENT_SET_NO = 999
REV_AT_EPOCH   = 42244
BSTAR          = .12533169E-3
MEAN_MOTION_DOT = .254E-5
MEAN_MOTION_DDOT = 0

CCSDS_OMM_VERS = 2.0
CREATION_DATE  = 
ORIGINATOR     = 

OBJECT_NAME    = SL-16 R/B
OBJECT_ID      = 1998-045B
CENTER_NAME    = EARTH
REF_FRAME      = TEME
TIME_SYSTEM    = UTC
MEAN_ELEMENT_THEORY = SGP/SGP4

EPOCH          = 2025-11-13T14:13:42.496608
MEAN_MOTION    = 14.16169342
ECCENTRICITY   = .00086218
INCLINATION    = 71.0121
RA_OF_ASC_NODE = 65.7191
ARG_OF_PERICENTER = 217.7051
MEAN_ANOMALY   = 142.3469

EPHEMERIS_TYPE = 0
CLASSIFICATION_TYPE = U
NORAD_CAT_ID   = 25407
ELEMENT_SET_NO = 999
REV_AT_EPOCH   = 41066
BSTAR          = -.16838122E-4
MEAN_MOTION_DOT = -.81E-6
MEAN_MOTION_DDOT = 0

CCSDS_OMM_VERS = 2.0
CREATION_DATE  = 
ORIGINATOR     = 

OBJECT_NAME    = ISS (ZARYA)
OBJECT_ID      = 1998-067A
CENTER_NAME    = EARTH
REF_FRAME      = TEME
TIME_SYSTEM    = UTC
MEAN_ELEMENT_THEORY = SGP/SGP4

EPOCH          = 2025-11-13T09:16:25.350528
MEAN_MOTION    = 15.49618030
ECCENTRICITY   = .00041651
INCLINATION    = 51.6331
RA_OF_ASC_NODE = 287.7803
ARG_OF_PERICENTER = 65.1573
MEAN_ANOMALY   = 294.9849

EPHEMERIS_TYPE = 0
CLASSIFICATION_TYPE = U
NORAD_CAT_ID   = 25544
ELEMENT_SET_NO = 999
REV_AT_EPOCH   = 53830
BSTAR          = .34613939E-3
MEAN_MOTION_DOT = .19086E-3
MEAN_MOTION_DDOT = 0

CCSDS_OMM_VERS = 2.0
CREATION_DATE  = 
ORIGINATOR     = 

OBJECT_NAME    = CZ-4B R/B
OBJECT_ID      = 1999-025C
CENTER_NAME    = EARTH
REF_FRAME      = TEME
TIME_SYSTEM    = UTC
MEAN_ELEMENT_THEORY = SGP/SGP4

EPOCH          = 2025-11-13T09:23:51.527040
MEAN_MOTION    = 14.18232972
ECCENTRICITY   = .00363826
INCLINATION    = 98.6814
RA_OF_ASC_NODE = 359.3216
ARG_OF_PERICENTER = 320.6891
MEAN_ANOMALY   = 54.8730

EPHEMERIS_TYPE = 0
CLASSIFICATION_TYPE = U
NORAD_CAT_ID   = 25732
ELEMENT_SET_NO = 999
REV_AT_EPOCH   = 37168
BSTAR          = .12965575E-3
MEAN_MOTION_DOT = .225E-5
MEAN_MOTION_DDOT = 0

CCSDS_OMM_VERS = 2.0
CREATION_DATE  = 
ORIGINATOR     = 

OBJECT_NAME    = OKEAN-O
OBJECT_ID      = 1999-039A
CENTER_NAME    = EARTH
REF_FRAME      = TEME
TIME_SYSTEM    = UTC
MEAN_ELEMENT_THEORY = SGP/SGP4

EPOCH          = 2025-11-13T14:02:32.057664
MEAN_MOTION    = 14.80090968
ECCENTRICITY   = .00014267
INCLINATION    = 97.9646
RA_OF_ASC_NODE = 13.5338
ARG_OF_PERICENTER = 67.6712
MEAN_ANOMALY   = 292.4651

EPHEMERIS_TYPE = 0
CLASSIFICATION_TYPE = U
NORAD_CAT_ID   = 25860
ELEMENT_SET_NO = 999
REV_AT_EPOCH   = 41721
BSTAR          = .25036044E-3
MEAN_MOTION_DOT = .1846E-4
MEAN_MOTION_DDOT = 0

CCSDS_OMM_VERS = 2.0
CREATION_DATE  = 
ORIGINATOR     = 

OBJECT_NAME    = SL-16 R/B
OBJECT_ID      = 1999-039B
CENTER_NAME    = EARTH
REF_FRAME      = TEME
TIME_SYSTEM    = UTC
MEAN_ELEMENT_THEORY = SGP/SGP4

EPOCH          = 2025-11-13T14:35:56.806368
MEAN_MOTION    = 14.81526088
ECCENTRICITY   = .00135099
INCLINATION    = 98.0169
RA_OF_ASC_NODE = 11.7518
ARG_OF_PERICENTER = 274.6547
MEAN_ANOMALY   = 85.3122

EPHEMERIS_TYPE = 0
CLASSIFICATION_TYPE = U
NORAD_CAT_ID   = 25861
ELEMENT_SET_NO = 999
REV_AT_EPOCH   = 41967
BSTAR          = .20943637E-3
MEAN_MOTION_DOT = .1591E-4
MEAN_MOTION_DDOT = 0

CCSDS_OMM_VERS = 2.0
CREATION_DATE  = 
ORIGINATOR     = 

OBJECT_NAME    = DELTA 2 R/B
OBJECT_ID      = 1999-041E
CENTER_NAME    = EARTH
REF_FRAME      = TEME
TIME_SYSTEM    = UTC
MEAN_ELEMENT_THEORY = SGP/SGP4

EPOCH          = 2025-11-13T12:54:05.960736
MEAN_MOTION    = 14.11299085
ECCENTRICITY   = .05048532
INCLINATION    = 51.7631
RA_OF_ASC_NODE = 45.0052
ARG_OF_PERICENTER = 5.7206
MEAN_ANOMALY   = 354.9205

EPHEMERIS_TYPE = 0
CLASSIFICATION_TYPE = U
NORAD_CAT_ID   = 25876
ELEMENT_SET_NO = 999
REV_AT_EPOCH   = 34662
BSTAR          = .42217208E-3
MEAN_MOTION_DOT = .2383E-4
MEAN_MOTION_DDOT = 0

CCSDS_OMM_VERS = 2.0
CREATION_DATE  = 
ORIGINATOR     = 

OBJECT_NAME    = HELIOS 1B
OBJECT_ID      = 1999-064A
CENTER_NAME    = EARTH
REF_FRAME      = TEME
TIME_SYSTEM    = UTC
MEAN_ELEMENT_THEORY = SGP/SGP4

EPOCH          = 2025-11-13T06:24:13.672224
MEAN_MOTION    = 14.87107216
ECCENTRICITY   = .00026241
INCLINATION    = 98.1752
RA_OF_ASC_NODE = 211.0620
ARG_OF_PERICENTER = 83.1526
MEAN_ANOMALY   = 276.9988

EPHEMERIS_TYPE = 0
CLASSIFICATION_TYPE = U
NORAD_CAT_ID   = 25977
ELEMENT_SET_NO = 999
REV_AT_EPOCH   = 66795
BSTAR          = .70189331E-3
MEAN_MOTION_DOT = .6248E-4
MEAN_MOTION_DDOT = 0

CCSDS_OMM_VERS = 2.0
CREATION_DATE  = 
ORIGINATOR     = 

OBJECT_NAME    = TERRA
OBJECT_ID      = 1999-068A
CENTER_NAME    = EARTH
REF_FRAME      = TEME
TIME_SYSTEM    = UTC
MEAN_ELEMENT_THEORY = SGP/SGP4

EPOCH          = 2025-11-13T15:28:15.794400
MEAN_MOTION    = 14.60904440
ECCENTRICITY   = .00024276
INCLINATION    = 97.9791
RA_OF_ASC_NODE = 10.3896
ARG_OF_PERICENTER = 159.5203
MEAN_ANOMALY   = 2.0760

EPHEMERIS_TYPE = 0
CLASSIFICATION_TYPE = U
NORAD_CAT_ID   = 25994
ELEMENT_SET_NO = 999
REV_AT_EPOCH   = 37813
BSTAR          = .28112554E-3
MEAN_MOTION_DOT = .1331E-4
MEAN_MOTION_DDOT = 0

CCSDS_OMM_VERS = 2.0
CREATION_DATE  = 
ORIGINATOR     = 

OBJECT_NAME    = SL-16 R/B
OBJECT_ID      = 2000-006B
CENTER_NAME    = EARTH
REF_FRAME      = TEME
TIME_SYSTEM    = UTC
MEAN_ELEMENT_THEORY = SGP/SGP4

EPOCH          = 2025-11-13T10:29:06.622080
MEAN_MOTION    = 14.15802503
ECCENTRICITY   = .00169382
INCLINATION    = 71.0034
RA_OF_ASC_NODE = 342.2726
ARG_OF_PERICENTER = 349.8579
MEAN_ANOMALY   = 10.2200

EPHEMERIS_TYPE = 0
CLASSIFICATION_TYPE = U
NORAD_CAT_ID   = 26070
ELEMENT_SET_NO = 999
REV_AT_EPOCH   = 33210
BSTAR          = -.16885698E-4
MEAN_MOTION_DOT = -.81E-6
MEAN_MOTION_DDOT = 0

